[
    {
        "OBJECT_NAME": "NAVSTAR 16 (USA 47)",
        "OBJECT_ID": "1989-085A",
        "EPOCH": "2026-07-21T19:36:25.028640",
        "MEAN_MOTION": 1.89426043,
        "ECCENTRICITY": 0.00085228,
        "INCLINATION": 53.9754,
        "RA_OF_ASC_NODE": 182.3396,
        "ARG_OF_PERICENTER": 69.8252,
        "MEAN_ANOMALY": 72.9353,
        "EPHEMERIS_TYPE": 0,
        "CLASSIFICATION_TYPE": "U",
        "NORAD_CAT_ID": 20302,
        "ELEMENT_SET_NO": 999,
        "REV_AT_EPOCH": 25919,
        "BSTAR": 0,
        "MEAN_MOTION_DOT": 7.8e-07,
        "MEAN_MOTION_DDOT": 0
    },
    {
        "OBJECT_NAME": "NAVSTAR 17 (USA 49)",
        "OBJECT_ID": "1989-097A",
        "EPOCH": "2026-07-21T14:56:32.816256",
        "MEAN_MOTION": 1.89176449,
        "ECCENTRICITY": 0.00220073,
        "INCLINATION": 56.4029,
        "RA_OF_ASC_NODE": 9.8839,
        "ARG_OF_PERICENTER": 321.138,
        "MEAN_ANOMALY": 220.2047,
        "EPHEMERIS_TYPE": 0,
        "CLASSIFICATION_TYPE": "U",
        "NORAD_CAT_ID": 20361,
        "ELEMENT_SET_NO": 999,
        "REV_AT_EPOCH": 25000,
        "BSTAR": 0,
        "MEAN_MOTION_DOT": -1e-06,
        "MEAN_MOTION_DDOT": 0
    },
    {
        "OBJECT_NAME": "NAVSTAR 18 (USA 50)",
        "OBJECT_ID": "1990-008A",
        "EPOCH": "2026-07-21T06:54:48.682944",
        "MEAN_MOTION": 1.89597803,
        "ECCENTRICITY": 0.00150926,
        "INCLINATION": 54.8693,
        "RA_OF_ASC_NODE": 132.455,
        "ARG_OF_PERICENTER": 283.81,
        "MEAN_ANOMALY": 249.3397,
        "EPHEMERIS_TYPE": 0,
        "CLASSIFICATION_TYPE": "U",
        "NORAD_CAT_ID": 20452,
        "ELEMENT_SET_NO": 999,
        "REV_AT_EPOCH": 25707,
        "BSTAR": 0,
        "MEAN_MOTION_DOT": -4e-08,
        "MEAN_MOTION_DDOT": 0
    },
    {
        "OBJECT_NAME": "NAVSTAR 19 (USA 54)",
        "OBJECT_ID": "1990-025A",
        "EPOCH": "2026-07-22T07:42:38.780352",
        "MEAN_MOTION": 1.9103876,
        "ECCENTRICITY": 0.00471578,
        "INCLINATION": 53.4525,
        "RA_OF_ASC_NODE": 244.2342,
        "ARG_OF_PERICENTER": 227.8022,
        "MEAN_ANOMALY": 130.2757,
        "EPHEMERIS_TYPE": 0,
        "CLASSIFICATION_TYPE": "U",
        "NORAD_CAT_ID": 20533,
        "ELEMENT_SET_NO": 999,
        "REV_AT_EPOCH": 25568,
        "BSTAR": 0,
        "MEAN_MOTION_DOT": 3.4e-07,
        "MEAN_MOTION_DDOT": 0
    },
    {
        "OBJECT_NAME": "NAVSTAR 20 (USA 63)",
        "OBJECT_ID": "1990-068A",
        "EPOCH": "2026-07-20T23:48:06.017184",
        "MEAN_MOTION": 1.87186369,
        "ECCENTRICITY": 0.00361211,
        "INCLINATION": 54.9587,
        "RA_OF_ASC_NODE": 73.3834,
        "ARG_OF_PERICENTER": 332.3051,
        "MEAN_ANOMALY": 340.174,
        "EPHEMERIS_TYPE": 0,
        "CLASSIFICATION_TYPE": "U",
        "NORAD_CAT_ID": 20724,
        "ELEMENT_SET_NO": 999,
        "REV_AT_EPOCH": 25053,
        "BSTAR": 0,
        "MEAN_MOTION_DOT": -7.7e-07,
        "MEAN_MOTION_DDOT": 0
    },
    {
        "OBJECT_NAME": "NAVSTAR 21 (USA 64)",
        "OBJECT_ID": "1990-088A",
        "EPOCH": "2026-07-21T00:02:44.992032",
        "MEAN_MOTION": 1.87753246,
        "ECCENTRICITY": 0.00218396,
        "INCLINATION": 56.4815,
        "RA_OF_ASC_NODE": 8.7631,
        "ARG_OF_PERICENTER": 290.4179,
        "MEAN_ANOMALY": 70.9611,
        "EPHEMERIS_TYPE": 0,
        "CLASSIFICATION_TYPE": "U",
        "NORAD_CAT_ID": 20830,
        "ELEMENT_SET_NO": 999,
        "REV_AT_EPOCH": 25344,
        "BSTAR": 0,
        "MEAN_MOTION_DOT": -1.02e-06,
        "MEAN_MOTION_DDOT": 0
    },
    {
        "OBJECT_NAME": "NAVSTAR 22 (USA 66)",
        "OBJECT_ID": "1990-103A",
        "EPOCH": "2026-07-18T12:37:09.979680",
        "MEAN_MOTION": 1.88155273,
        "ECCENTRICITY": 0.00233964,
        "INCLINATION": 56.2301,
        "RA_OF_ASC_NODE": 50.6089,
        "ARG_OF_PERICENTER": 89.1311,
        "MEAN_ANOMALY": 271.1969,
        "EPHEMERIS_TYPE": 0,
        "CLASSIFICATION_TYPE": "U",
        "NORAD_CAT_ID": 20959,
        "ELEMENT_SET_NO": 999,
        "REV_AT_EPOCH": 25645,
        "BSTAR": 0,
        "MEAN_MOTION_DOT": -7.6e-07,
        "MEAN_MOTION_DDOT": 0
    },
    {
        "OBJECT_NAME": "NAVSTAR 23 (USA 71)",
        "OBJECT_ID": "1991-047A",
        "EPOCH": "2026-07-19T15:18:28.379808",
        "MEAN_MOTION": 1.91858433,
        "ECCENTRICITY": 0.0034456,
        "INCLINATION": 56.5122,
        "RA_OF_ASC_NODE": 351.4253,
        "ARG_OF_PERICENTER": 135.2631,
        "MEAN_ANOMALY": 218.8805,
        "EPHEMERIS_TYPE": 0,
        "CLASSIFICATION_TYPE": "U",
        "NORAD_CAT_ID": 21552,
        "ELEMENT_SET_NO": 999,
        "REV_AT_EPOCH": 25200,
        "BSTAR": 0,
        "MEAN_MOTION_DOT": -1.08e-06,
        "MEAN_MOTION_DDOT": 0
    },
    {
        "OBJECT_NAME": "NAVSTAR 24 (USA 79)",
        "OBJECT_ID": "1992-009A",
        "EPOCH": "2026-07-21T02:50:48.845760",
        "MEAN_MOTION": 1.91828538,
        "ECCENTRICITY": 0.00529613,
        "INCLINATION": 54.2281,
        "RA_OF_ASC_NODE": 164.9878,
        "ARG_OF_PERICENTER": 61.1285,
        "MEAN_ANOMALY": 115.5637,
        "EPHEMERIS_TYPE": 0,
        "CLASSIFICATION_TYPE": "U",
        "NORAD_CAT_ID": 21890,
        "ELEMENT_SET_NO": 999,
        "REV_AT_EPOCH": 24674,
        "BSTAR": 0,
        "MEAN_MOTION_DOT": 5.7e-07,
        "MEAN_MOTION_DDOT": 0
    },
    {
        "OBJECT_NAME": "NAVSTAR 25 (USA 80)",
        "OBJECT_ID": "1992-019A",
        "EPOCH": "2026-07-21T15:26:20.002848",
        "MEAN_MOTION": 1.8766148,
        "ECCENTRICITY": 0.00296698,
        "INCLINATION": 54.9078,
        "RA_OF_ASC_NODE": 304.0128,
        "ARG_OF_PERICENTER": 347.8409,
        "MEAN_ANOMALY": 9.5299,
        "EPHEMERIS_TYPE": 0,
        "CLASSIFICATION_TYPE": "U",
        "NORAD_CAT_ID": 21930,
        "ELEMENT_SET_NO": 999,
        "REV_AT_EPOCH": 24209,
        "BSTAR": 0,
        "MEAN_MOTION_DOT": -1.04e-06,
        "MEAN_MOTION_DDOT": 0
    },
    {
        "OBJECT_NAME": "NAVSTAR 26 (USA 83)",
        "OBJECT_ID": "1992-039A",
        "EPOCH": "2026-07-18T23:23:35.371680",
        "MEAN_MOTION": 1.87911769,
        "ECCENTRICITY": 0.00048216,
        "INCLINATION": 55.5365,
        "RA_OF_ASC_NODE": 118.6278,
        "ARG_OF_PERICENTER": 296.7554,
        "MEAN_ANOMALY": 63.2044,
        "EPHEMERIS_TYPE": 0,
        "CLASSIFICATION_TYPE": "U",
        "NORAD_CAT_ID": 22014,
        "ELEMENT_SET_NO": 999,
        "REV_AT_EPOCH": 7585,
        "BSTAR": 0,
        "MEAN_MOTION_DOT": -4e-08,
        "MEAN_MOTION_DDOT": 0
    },
    {
        "OBJECT_NAME": "NAVSTAR 27 (USA 84)",
        "OBJECT_ID": "1992-058A",
        "EPOCH": "2026-07-18T03:16:03.088704",
        "MEAN_MOTION": 1.87561049,
        "ECCENTRICITY": 0.00171723,
        "INCLINATION": 54.6698,
        "RA_OF_ASC_NODE": 165.824,
        "ARG_OF_PERICENTER": 45.109,
        "MEAN_ANOMALY": 314.9902,
        "EPHEMERIS_TYPE": 0,
        "CLASSIFICATION_TYPE": "U",
        "NORAD_CAT_ID": 22108,
        "ELEMENT_SET_NO": 999,
        "REV_AT_EPOCH": 24360,
        "BSTAR": 0,
        "MEAN_MOTION_DOT": 4.8e-07,
        "MEAN_MOTION_DDOT": 0
    },
    {
        "OBJECT_NAME": "NAVSTAR 28 (USA 85)",
        "OBJECT_ID": "1992-079A",
        "EPOCH": "2026-07-18T05:21:37.052064",
        "MEAN_MOTION": 1.89108567,
        "ECCENTRICITY": 0.00251548,
        "INCLINATION": 55.57,
        "RA_OF_ASC_NODE": 112.7515,
        "ARG_OF_PERICENTER": 5.8121,
        "MEAN_ANOMALY": 354.2354,
        "EPHEMERIS_TYPE": 0,
        "CLASSIFICATION_TYPE": "U",
        "NORAD_CAT_ID": 22231,
        "ELEMENT_SET_NO": 999,
        "REV_AT_EPOCH": 6272,
        "BSTAR": 0,
        "MEAN_MOTION_DOT": -7e-08,
        "MEAN_MOTION_DDOT": 0
    }
]
