{"epoch":1784762836,"count":18316,"objects":[{"id":"20302","name":"NAVSTAR 16 (USA 47)","type":"PAYLOAD","l1":"1 20302U 89085A   26202.81695635  .00000078  00000-0  00000-0 0  9997","l2":"2 20302  53.9754 182.3396 0008523  69.8252  72.9353  1.89426043259196"},{"id":"20361","name":"NAVSTAR 17 (USA 49)","type":"PAYLOAD","l1":"1 20361U 89097A   26202.62260204 -.00000100  00000-0  00000-0 0  9991","l2":"2 20361  56.4029   9.8839 0022007 321.1380 220.2047  1.89176449250009"},{"id":"20452","name":"NAVSTAR 18 (USA 50)","type":"PAYLOAD","l1":"1 20452U 90008A   26202.28806346 -.00000004  00000-0  00000-0 0  9994","l2":"2 20452  54.8693 132.4550 0015093 283.8100 249.3397  1.89597803257078"},{"id":"20533","name":"NAVSTAR 19 (USA 54)","type":"PAYLOAD","l1":"1 20533U 90025A   26203.32128218  .00000034  00000-0  00000-0 0  9996","l2":"2 20533  53.4525 244.2342 0047158 227.8022 130.2757  1.91038760255684"},{"id":"20724","name":"NAVSTAR 20 (USA 63)","type":"PAYLOAD","l1":"1 20724U 90068A   26201.99173631 -.00000077  00000-0  00000-0 0  9993","l2":"2 20724  54.9587  73.3834 0036121 332.3051 340.1740  1.87186369250536"},{"id":"20830","name":"NAVSTAR 21 (USA 64)","type":"PAYLOAD","l1":"1 20830U 90088A   26202.00190963 -.00000102  00000-0  00000-0 0  9992","l2":"2 20830  56.4815   8.7631 0021840 290.4179  70.9611  1.87753246253441"},{"id":"20959","name":"NAVSTAR 22 (USA 66)","type":"PAYLOAD","l1":"1 20959U 90103A   26199.52580995 -.00000076  00000-0  00000-0 0  9992","l2":"2 20959  56.2301  50.6089 0023396  89.1311 271.1969  1.88155273256455"},{"id":"21552","name":"NAVSTAR 23 (USA 71)","type":"PAYLOAD","l1":"1 21552U 91047A   26200.63782847 -.00000108  00000-0  00000+0 0  9990","l2":"2 21552  56.5122 351.4253 0034456 135.2631 218.8805  1.91858433252007"},{"id":"21890","name":"NAVSTAR 24 (USA 79)","type":"PAYLOAD","l1":"1 21890U 92009A   26202.11862090  .00000057  00000-0  00000-0 0  9991","l2":"2 21890  54.2281 164.9878 0052961  61.1285 115.5637  1.91828538246749"},{"id":"21930","name":"NAVSTAR 25 (USA 80)","type":"PAYLOAD","l1":"1 21930U 92019A   26202.64328707 -.00000104  00000-0  00000-0 0  9991","l2":"2 21930  54.9078 304.0128 0029670 347.8409   9.5299  1.87661480242099"},{"id":"22014","name":"NAVSTAR 26 (USA 83)","type":"PAYLOAD","l1":"1 22014U 92039A   26199.97471495 -.00000004  00000-0  00000-0 0  9990","l2":"2 22014  55.5365 118.6278 0004822 296.7554  63.2044  1.87911769 75850"},{"id":"22108","name":"NAVSTAR 27 (USA 84)","type":"PAYLOAD","l1":"1 22108U 92058A   26199.13614686  .00000048  00000-0  00000-0 0  9991","l2":"2 22108  54.6698 165.8240 0017172  45.1090 314.9902  1.87561049243600"},{"id":"22231","name":"NAVSTAR 28 (USA 85)","type":"PAYLOAD","l1":"1 22231U 92079A   26199.22334551 -.00000007  00000-0  00000-0 0  9997","l2":"2 22231  55.5700 112.7515 0025155   5.8121 354.2354  1.89108567 62729"}]}